$$SOE
2460728.500000000, A.D. 2025-Feb-22 00:00:00.0000, -7.119464697032200E+08, 2.275379158395687E+08, 3.477348735459088E+07,
2460735.500000000, A.D. 2025-Mar-01 00:00:00.0000, -7.146406872624172E+08, 2.198649300258800E+08, 3.591840194651911E+07,
2460742.500000000, A.D. 2025-Mar-08 00:00:00.0000, -7.172521571744066E+08, 2.121664362832184E+08, 3.705915758747151E+07,
2460749.500000000, A.D. 2025-Mar-15 00:00:00.0000, -7.197806833592428E+08, 2.044433605743695E+08, 3.819562758689378E+07,
2460756.500000000, A.D. 2025-Mar-22 00:00:00.0000, -7.222260821575744E+08, 1.966966317175023E+08, 3.932768639464077E+07,
2460763.500000000, A.D. 2025-Mar-29 00:00:00.0000, -7.245881831636608E+08, 1.889271794036610E+08, 4.045520955166318E+07,
2460770.500000000, A.D. 2025-Apr-05 00:00:00.0000, -7.268668283609061E+08, 1.811359330989796E+08, 4.157807355790947E+07,
2460777.500000000, A.D. 2025-Apr-12 00:00:00.0000, -7.290618714860709E+08, 1.733238219355570E+08, 4.269615584228600E+07,
2460784.500000000, A.D. 2025-Apr-19 00:00:00.0000, -7.311731778098103E+08, 1.654917747099526E+08, 4.380933477953900E+07,
2460791.500000000, A.D. 2025-Apr-26 00:00:00.0000, -7.332006240622205E+08, 1.576407197868217E+08, 4.491748971230465E+07,
2460798.500000000, A.D. 2025-May-03 00:00:00.0000, -7.351440983898575E+08, 1.497715849274572E+08, 4.602050096925980E+07,
2460805.500000000, A.D. 2025-May-10 00:00:00.0000, -7.370035003156801E+08, 1.418852970524250E+08, 4.711824987728918E+07,
2460812.500000000, A.D. 2025-May-17 00:00:00.0000, -7.387787406651679E+08, 1.339827818976979E+08, 4.821061876081631E+07,
2460819.500000000, A.D. 2025-May-24 00:00:00.0000, -7.404697412846459E+08, 1.260649635101810E+08, 4.929749090780534E+07,
2460826.500000000, A.D. 2025-May-31 00:00:00.0000, -7.420764341339494E+08, 1.181327638938896E+08, 5.037875048947091E+07,
2460833.500000000, A.D. 2025-Jun-07 00:00:00.0000, -7.435987601542847E+08, 1.101871040117519E+08, 5.145428256889872E+07,
2460840.500000000, A.D. 2025-Jun-14 00:00:00.0000, -7.450366702759440E+08, 1.022289054762987E+08, 5.252397336095324E+07,
2460847.500000000, A.D. 2025-Jun-21 00:00:00.0000, -7.463901273493721E+08, 9.425908965816429E+07, 5.358771036456297E+07,
2460854.500000000, A.D. 2025-Jun-28 00:00:00.0000, -7.476591058712947E+08, 8.627857597745666E+07, 5.464538222472147E+07,
2460861.500000000, A.D. 2025-Jul-05 00:00:00.0000, -7.488435910223399E+08, 7.828828153456356E+07, 5.569687863957837E+07,
2460868.500000000, A.D. 2025-Jul-12 00:00:00.0000, -7.499435782072003E+08, 7.028912127505484E+07, 5.674209035608639E+07,
2460875.500000000, A.D. 2025-Jul-19 00:00:00.0000, -7.509590729079483E+08, 6.228200811374921E+07, 5.778090918989219E+07,
2460882.500000000, A.D. 2025-Jul-26 00:00:00.0000, -7.518900906406866E+08, 5.426785296158431E+07, 5.881322804568671E+07,
2460889.500000000, A.D. 2025-Aug-02 00:00:00.0000, -7.527366569501883E+08, 4.624756467715567E+07, 5.983894093389906E+07,
2460896.500000000, A.D. 2025-Aug-09 00:00:00.0000, -7.534988074191295E+08, 3.822204992854160E+07, 6.085794298053557E+07,
2460903.500000000, A.D. 2025-Aug-16 00:00:00.0000, -7.541765876150028E+08, 3.019221290247538E+07, 6.187013041811485E+07,
2460910.500000000, A.D. 2025-Aug-23 00:00:00.0000, -7.547700526821033E+08, 2.215895487764025E+07, 6.287540053241656E+07,
2460917.500000000, A.D. 2025-Aug-30 00:00:00.0000, -7.552792662496277E+08, 1.412317437636437E+07, 6.387365159345408E+07,
2460924.500000000, A.D. 2025-Sep-06 00:00:00.0000, -7.557043000740283E+08, 6.085768895099260E+06, 6.486478298273018E+07,
2460931.500000000, A.D. 2025-Sep-13 00:00:00.0000, -7.560452360866261E+08, -1.952364269130968E+06, 6.584869546737349E+07,
2460938.500000000, A.D. 2025-Sep-20 00:00:00.0000, -7.563021675735559E+08, -9.990329740458060E+06, 6.682529118683300E+07,
2460945.500000000, A.D. 2025-Sep-27 00:00:00.0000, -7.564751984294093E+08, -1.802723522215952E+07, 6.779447350955459E+07,
2460952.500000000, A.D. 2025-Oct-04 00:00:00.0000, -7.565644425011181E+08, -2.606219155156729E+07, 6.875614698883456E+07,
2460959.500000000, A.D. 2025-Oct-11 00:00:00.0000, -7.565700233958647E+08, -3.409431259478866E+07, 6.971021737516612E+07,
2460966.500000000, A.D. 2025-Oct-18 00:00:00.0000, -7.564920744695240E+08, -4.212271525534691E+07, 7.065659163669099E+07,
2460973.500000000, A.D. 2025-Oct-25 00:00:00.0000, -7.563307388561838E+08, -5.014651958527979E+07, 7.159517797583441E+07,
2460980.500000000, A.D. 2025-Nov-01 00:00:00.0000, -7.560861694992729E+08, -5.816484898269005E+07, 7.252588583966802E+07,
2460987.500000000, A.D. 2025-Nov-08 00:00:00.0000, -7.557585291496549E+08, -6.617683050665617E+07, 7.344862591809297E+07,
2460994.500000000, A.D. 2025-Nov-15 00:00:00.0000, -7.553479901827327E+08, -7.418159536760177E+07, 7.436331011127850E+07,
2461001.500000000, A.D. 2025-Nov-22 00:00:00.0000, -7.548547338318243E+08, -8.217827937265652E+07, 7.526985144717485E+07,
2461008.500000000, A.D. 2025-Nov-29 00:00:00.0000, -7.542789489910152E+08, -9.016602219071661E+07, 7.616816405567716E+07,
2461015.500000000, A.D. 2025-Dec-06 00:00:00.0000, -7.536208328650870E+08, -9.814396557303923E+07, 7.705816339701413E+07,
2461022.500000000, A.D. 2025-Dec-13 00:00:00.0000, -7.528805930333309E+08, -1.061112538994852E+08, 7.793976642903370E+07,
2461029.500000000, A.D. 2025-Dec-20 00:00:00.0000, -7.520584474344407E+08, -1.140670360267298E+08, 7.881289147654752E+07,
2461036.500000000, A.D. 2025-Dec-27 00:00:00.0000, -7.511546233462309E+08, -1.220104658465203E+08, 7.967745811292648E+07,
2461043.500000000, A.D. 2026-Jan-03 00:00:00.0000, -7.501693568193099E+08, -1.299407021689997E+08, 8.053338713744637E+07,
2461050.500000000, A.D. 2026-Jan-10 00:00:00.0000, -7.491028924550261E+08, -1.378569086093694E+08, 8.138060058286795E+07,
2461057.500000000, A.D. 2026-Jan-17 00:00:00.0000, -7.479554832952306E+08, -1.457582535686372E+08, 8.221902172451660E+07,
2461064.500000000, A.D. 2026-Jan-24 00:00:00.0000, -7.467273907459693E+08, -1.536439102848591E+08, 8.304857508567061E+07,
2461071.500000000, A.D. 2026-Jan-31 00:00:00.0000, -7.454188845116581E+08, -1.615130569613329E+08, 8.386918643660907E+07,
2461078.500000000, A.D. 2026-Feb-07 00:00:00.0000, -7.440302424782336E+08, -1.693648770281503E+08, 8.468078277710883E+07,
2461085.500000000, A.D. 2026-Feb-14 00:00:00.0000, -7.425617502922162E+08, -1.771985595515032E+08, 8.548329227803788E+07,
2461092.500000000, A.D. 2026-Feb-21 00:00:00.0000, -7.410137002480958E+08, -1.850132992129075E+08, 8.627664419375879E+07,
2461099.500000000, A.D. 2026-Feb-28 00:00:00.0000, -7.393863905688033E+08, -1.928082947042619E+08, 8.706076893918216E+07,
2461106.500000000, A.D. 2026-Mar-07 00:00:00.0000, -7.376801271378402E+08, -2.005827474884917E+08, 8.783559836099528E+07,
2461113.500000000, A.D. 2026-Mar-14 00:00:00.0000, -7.358952249076463E+08, -2.083358632584086E+08, 8.860106575796726E+07,
2461120.500000000, A.D. 2026-Mar-21 00:00:00.0000, -7.340320072013832E+08, -2.160668531955699E+08, 8.935710572375916E+07,
2461127.500000000, A.D. 2026-Mar-28 00:00:00.0000, -7.320908049173254E+08, -2.237749340003227E+08, 9.010365408069681E+07,
2461134.500000000, A.D. 2026-Apr-04 00:00:00.0000, -7.300719562394558E+08, -2.314593276587605E+08, 9.084064788108291E+07,
2461141.500000000, A.D. 2026-Apr-11 00:00:00.0000, -7.279758065803666E+08, -2.391192613066613E+08, 9.156802542168722E+07,
2461148.500000000, A.D. 2026-Apr-18 00:00:00.0000, -7.258027085971448E+08, -2.467539671971794E+08, 9.228572625646599E+07,
2461155.500000000, A.D. 2026-Apr-25 00:00:00.0000, -7.235530222342426E+08, -2.543626827576396E+08, 9.299369120472217E+07,
2461162.500000000, A.D. 2026-May-02 00:00:00.0000, -7.212271147623513E+08, -2.619446507651027E+08, 9.369186234967270E+07,
2461169.500000000, A.D. 2026-May-09 00:00:00.0000, -7.188253606883658E+08, -2.694991197069742E+08, 9.438018301076482E+07,
2461176.500000000, A.D. 2026-May-16 00:00:00.0000, -7.163481411581875E+08, -2.770253441883277E+08, 9.505859766652626E+07,
2461183.500000000, A.D. 2026-May-23 00:00:00.0000, -7.137958428002888E+08, -2.845225843635473E+08, 9.572705190683222E+07,
2461190.500000000, A.D. 2026-May-30 00:00:00.0000, -7.111688580882791E+08, -2.919901040727440E+08, 9.638549263134234E+07,
2461197.500000000, A.D. 2026-Jun-06 00:00:00.0000, -7.084675875398598E+08, -2.994271709566270E+08, 9.703386825564553E+07,
2461204.500000000, A.D. 2026-Jun-13 00:00:00.0000, -7.056924400864582E+08, -3.068330583508490E+08, 9.767212860506517E+07,
2461211.500000000, A.D. 2026-Jun-20 00:00:00.0000, -7.028438321145881E+08, -3.142070460334182E+08, 9.830022478101879E+07,
2461218.500000000, A.D. 2026-Jun-27 00:00:00.0000, -6.999221868770579E+08, -3.215484201648403E+08, 9.891810912763363E+07,
2461225.500000000, A.D. 2026-Jul-04 00:00:00.0000, -6.969279342739594E+08, -3.288564731958394E+08, 9.952573523497710E+07,
2461232.500000000, A.D. 2026-Jul-11 00:00:00.0000, -6.938615107494224E+08, -3.361305038745897E+08, 1.001230579445310E+08,
2461239.500000000, A.D. 2026-Jul-18 00:00:00.0000, -6.907233592113997E+08, -3.433698173277654E+08, 1.007100333502364E+08,
2461246.500000000, A.D. 2026-Jul-25 00:00:00.0000, -6.875139289500829E+08, -3.505737252127503E+08, 1.012866187928683E+08,
2461253.500000000, A.D. 2026-Aug-01 00:00:00.0000, -6.842336755069797E+08, -3.577415459891798E+08, 1.018527728392277E+08,
2461260.500000000, A.D. 2026-Aug-08 00:00:00.0000, -6.808830602799499E+08, -3.648726053456870E+08, 1.024084552233987E+08,
2461267.500000000, A.D. 2026-Aug-15 00:00:00.0000, -6.774625494493688E+08, -3.719662363313512E+08, 1.029536267487413E+08,
2461274.500000000, A.D. 2026-Aug-22 00:00:00.0000, -6.739726129865831E+08, -3.790217779703450E+08, 1.034882493201749E+08,
2461281.500000000, A.D. 2026-Aug-29 00:00:00.0000, -6.704137260338318E+08, -3.860385737323724E+08, 1.040122862044810E+08,
2461288.500000000, A.D. 2026-Sep-05 00:00:00.0000, -6.667863705222571E+08, -3.930159727270093E+08, 1.045257020885654E+08,
2461295.500000000, A.D. 2026-Sep-12 00:00:00.0000, -6.630910345733534E+08, -3.999533311261081E+08, 1.050284629145395E+08,
$$EOE